[{"OBJECT_NAME":"ONEWEB-0139","OBJECT_ID":"2020-100AD","EPOCH":"2026-03-09T21:46:22.861920","MEAN_MOTION":13.12443565,"ECCENTRICITY":0.00018636,"INCLINATION":87.9004,"RA_OF_ASC_NODE":10.3555,"ARG_OF_PERICENTER":79.3749,"MEAN_ANOMALY":280.7589,"EPHEMERIS_TYPE":0,"CLASSIFICATION_TYPE":"U","NORAD_CAT_ID":47285,"ELEMENT_SET_NO":999,"REV_AT_EPOCH":25170,"BSTAR":0.0013241253,"MEAN_MOTION_DOT":4.89e-6,"MEAN_MOTION_DDOT":0},{"OBJECT_NAME":"COSMOS 252 DEB","OBJECT_ID":"1968-097DK","EPOCH":"2026-03-09T23:02:14.057088","MEAN_MOTION":13.06394575,"ECCENTRICITY":0.08894782,"INCLINATION":62.818,"RA_OF_ASC_NODE":238.5595,"ARG_OF_PERICENTER":209.7877,"MEAN_ANOMALY":144.9552,"EPHEMERIS_TYPE":0,"CLASSIFICATION_TYPE":"U","NORAD_CAT_ID":5871,"ELEMENT_SET_NO":999,"REV_AT_EPOCH":70061,"BSTAR":8.1069847e-5,"MEAN_MOTION_DOT":9.2e-7,"MEAN_MOTION_DDOT":0}]
